{
  "type": "FeatureCollection",
  "features": [
    {
      "type": "Feature",
      "properties": {
        "norad_id": 30090,
        "name": "FENGYUN 1C DEB",
        "group": "fengyun-1c-debris",
        "lat": 51.86208161313012,
        "lon": -18.763623487239425,
        "alt_km": 749.5542058783367,
        "timestamp": "2025-12-02T17:49:12.301806+00:00",
        "meta_object_name": "FENGYUN 1C DEB",
        "meta_object_id": "1999-025QT",
        "meta_epoch": "2025-12-02T07:42:28.255104",
        "meta_mean_motion": 14.28999566,
        "meta_eccentricity": 0.0058169,
        "meta_inclination": 99.4093,
        "meta_ra_of_asc_node": 148.5898,
        "meta_arg_of_pericenter": 141.4735,
        "meta_mean_anomaly": 339.3904,
        "meta_ephemeris_type": 0,
        "meta_classification_type": "U",
        "meta_norad_cat_id": 30090,
        "meta_element_set_no": 999,
        "meta_rev_at_epoch": 98121,
        "meta_bstar": 0.00040112,
        "meta_mean_motion_dot": 9.83e-06,
        "meta_mean_motion_ddot": 0,
        "tle_line1": "1 30090U 99025QT  25336.32116036  .00000983  00000+0  40112-3 0  9998",
        "tle_line2": "2 30090  99.4093 148.5898 0058169 141.4735 339.3904 14.28999566981216"
      },
      "geometry": {
        "type": "Point",
        "coordinates": [
          -18.763623487239425,
          51.86208161313012
        ]
      }
    },
    {
      "type": "Feature",
      "properties": {
        "norad_id": 30092,
        "name": "FENGYUN 1C DEB",
        "group": "fengyun-1c-debris",
        "lat": 79.5607243574883,
        "lon": 97.07943102554307,
        "alt_km": 810.94290223997,
        "timestamp": "2025-12-02T17:49:12.301816+00:00",
        "meta_object_name": "FENGYUN 1C DEB",
        "meta_object_id": "1999-025QV",
        "meta_epoch": "2025-12-02T10:53:41.465760",
        "meta_mean_motion": 14.39078952,
        "meta_eccentricity": 0.0082647,
        "meta_inclination": 98.9234,
        "meta_ra_of_asc_node": 155.2931,
        "meta_arg_of_pericenter": 281.0386,
        "meta_mean_anomaly": 109.2428,
        "meta_ephemeris_type": 0,
        "meta_classification_type": "U",
        "meta_norad_cat_id": 30092,
        "meta_element_set_no": 999,
        "meta_rev_at_epoch": 98601,
        "meta_bstar": 0.00068829,
        "meta_mean_motion_dot": 2.165e-05,
        "meta_mean_motion_ddot": 0,
        "tle_line1": "1 30092U 99025QV  25336.45395215  .00002165  00000+0  68829-3 0  9991",
        "tle_line2": "2 30092  98.9234 155.2931 0082647 281.0386 109.2428 14.39078952986010"
      },
      "geometry": {
        "type": "Point",
        "coordinates": [
          97.07943102554307,
          79.5607243574883
        ]
      }
    },
    {
      "type": "Feature",
      "properties": {
        "norad_id": 30093,
        "name": "FENGYUN 1C DEB",
        "group": "fengyun-1c-debris",
        "lat": 43.6099396205469,
        "lon": 39.45086004490329,
        "alt_km": 774.1721722450284,
        "timestamp": "2025-12-02T17:49:12.301826+00:00",
        "meta_object_name": "FENGYUN 1C DEB",
        "meta_object_id": "1999-025QW",
        "meta_epoch": "2025-12-02T06:07:54.158016",
        "meta_mean_motion": 14.43583197,
        "meta_eccentricity": 0.0070743,
        "meta_inclination": 98.8685,
        "meta_ra_of_asc_node": 210.3901,
        "meta_arg_of_pericenter": 8.5614,
        "meta_mean_anomaly": 116.9255,
        "meta_ephemeris_type": 0,
        "meta_classification_type": "U",
        "meta_norad_cat_id": 30093,
        "meta_element_set_no": 999,
        "meta_rev_at_epoch": 98652,
        "meta_bstar": 0.0011417,
        "meta_mean_motion_dot": 3.94e-05,
        "meta_mean_motion_ddot": 0,
        "tle_line1": "1 30093U 99025QW  25336.25548794  .00003940  00000+0  11417-2 0  9994",
        "tle_line2": "2 30093  98.8685 210.3901 0070743   8.5614 116.9255 14.43583197986526"
      },
      "geometry": {
        "type": "Point",
        "coordinates": [
          39.45086004490329,
          43.6099396205469
        ]
      }
    },
    {
      "type": "Feature",
      "properties": {
        "norad_id": 30095,
        "name": "FENGYUN 1C DEB",
        "group": "fengyun-1c-debris",
        "lat": -31.90849490251171,
        "lon": -97.8335994050845,
        "alt_km": 535.1942840476586,
        "timestamp": "2025-12-02T17:49:12.301837+00:00",
        "meta_object_name": "FENGYUN 1C DEB",
        "meta_object_id": "1999-025QY",
        "meta_epoch": "2025-12-02T08:14:02.855040",
        "meta_mean_motion": 14.81199902,
        "meta_eccentricity": 0.0168689,
        "meta_inclination": 99.2196,
        "meta_ra_of_asc_node": 255.9028,
        "meta_arg_of_pericenter": 4.9146,
        "meta_mean_anomaly": 355.367,
        "meta_ephemeris_type": 0,
        "meta_classification_type": "U",
        "meta_norad_cat_id": 30095,
        "meta_element_set_no": 999,
        "meta_rev_at_epoch": 99181,
        "meta_bstar": 0.002663,
        "meta_mean_motion_dot": 0.00026526,
        "meta_mean_motion_ddot": 0,
        "tle_line1": "1 30095U 99025QY  25336.34308860  .00026526  00000+0  26630-2 0  9992",
        "tle_line2": "2 30095  99.2196 255.9028 0168689   4.9146 355.3670 14.81199902991819"
      },
      "geometry": {
        "type": "Point",
        "coordinates": [
          -97.8335994050845,
          -31.90849490251171
        ]
      }
    },
    {
      "type": "Feature",
      "properties": {
        "norad_id": 30096,
        "name": "FENGYUN 1C DEB",
        "group": "fengyun-1c-debris",
        "lat": -26.517710988910974,
        "lon": 60.071731878068434,
        "alt_km": 773.5986901372407,
        "timestamp": "2025-12-02T17:49:12.301847+00:00",
        "meta_object_name": "FENGYUN 1C DEB",
        "meta_object_id": "1999-025QZ",
        "meta_epoch": "2025-12-02T04:31:35.929056",
        "meta_mean_motion": 14.31659256,
        "meta_eccentricity": 0.00788279,
        "meta_inclination": 99.1487,
        "meta_ra_of_asc_node": 54.8763,
        "meta_arg_of_pericenter": 263.231,
        "meta_mean_anomaly": 95.9897,
        "meta_ephemeris_type": 0,
        "meta_classification_type": "U",
        "meta_norad_cat_id": 30096,
        "meta_element_set_no": 999,
        "meta_rev_at_epoch": 98395,
        "meta_bstar": 0.00037484835,
        "meta_mean_motion_dot": 9.84e-06,
        "meta_mean_motion_ddot": 0,
        "tle_line1": "1 30096U 99025QZ  25336.18861029  .00000984  00000+0  37485-3 0  9997",
        "tle_line2": "2 30096  99.1487  54.8763 0078827 263.2310  95.9897 14.31659256983953"
      },
      "geometry": {
        "type": "Point",
        "coordinates": [
          60.071731878068434,
          -26.517710988910974
        ]
      }
    },
    {
      "type": "Feature",
      "properties": {
        "norad_id": 30099,
        "name": "FENGYUN 1C DEB",
        "group": "fengyun-1c-debris",
        "lat": 60.548378630747145,
        "lon": 33.86452493319721,
        "alt_km": 836.2636482097741,
        "timestamp": "2025-12-02T17:49:12.301857+00:00",
        "meta_object_name": "FENGYUN 1C DEB",
        "meta_object_id": "1999-025RC",
        "meta_epoch": "2025-12-02T04:18:52.299072",
        "meta_mean_motion": 14.25911217,
        "meta_eccentricity": 0.00608702,
        "meta_inclination": 98.5419,
        "meta_ra_of_asc_node": 48.7525,
        "meta_arg_of_pericenter": 276.0595,
        "meta_mean_anomaly": 138.3076,
        "meta_ephemeris_type": 0,
        "meta_classification_type": "U",
        "meta_norad_cat_id": 30099,
        "meta_element_set_no": 999,
        "meta_rev_at_epoch": 98039,
        "meta_bstar": 0.0003410466,
        "meta_mean_motion_dot": 7.85e-06,
        "meta_mean_motion_ddot": 0,
        "tle_line1": "1 30099U 99025RC  25336.17977198  .00000785  00000+0  34105-3 0  9999",
        "tle_line2": "2 30099  98.5419  48.7525 0060870 276.0595 138.3076 14.25911217980395"
      },
      "geometry": {
        "type": "Point",
        "coordinates": [
          33.86452493319721,
          60.548378630747145
        ]
      }
    },
    {
      "type": "Feature",
      "properties": {
        "norad_id": 30102,
        "name": "FENGYUN 1C DEB",
        "group": "fengyun-1c-debris",
        "lat": 20.60943304225859,
        "lon": -18.164914360050677,
        "alt_km": 716.7866874372667,
        "timestamp": "2025-12-02T17:49:12.301869+00:00",
        "meta_object_name": "FENGYUN 1C DEB",
        "meta_object_id": "1999-025RF",
        "meta_epoch": "2025-12-02T11:41:17.379744",
        "meta_mean_motion": 14.22102767,
        "meta_eccentricity": 0.0142335,
        "meta_inclination": 98.3794,
        "meta_ra_of_asc_node": 344.7697,
        "meta_arg_of_pericenter": 30.1105,
        "meta_mean_anomaly": 123.7871,
        "meta_ephemeris_type": 0,
        "meta_classification_type": "U",
        "meta_norad_cat_id": 30102,
        "meta_element_set_no": 999,
        "meta_rev_at_epoch": 97812,
        "meta_bstar": 0.00046876,
        "meta_mean_motion_dot": 1.11e-05,
        "meta_mean_motion_ddot": 0,
        "tle_line1": "1 30102U 99025RF  25336.48700671  .00001110  00000+0  46876-3 0  9999",
        "tle_line2": "2 30102  98.3794 344.7697 0142335  30.1105 123.7871 14.22102767978124"
      },
      "geometry": {
        "type": "Point",
        "coordinates": [
          -18.164914360050677,
          20.60943304225859
        ]
      }
    }
  ]
}